ONEWEB-0205             
1 48226U 21031S   26167.30044653 -.00000394  00000+0 -10967-2 0  9998
2 48226  87.8970 289.8732 0002137 106.4600 253.6765 13.14502985248154
ONEWEB-0206             
1 48227U 21031T   26167.27350305  .00000033  00000+0  53220-4 0  9998
2 48227  87.8969 289.8800 0001798  96.5779 263.5556 13.14504009248109
ONEWEB-0182             
1 48228U 21031U   26167.26875029  .00000092  00000+0  21420-3 0  9994
2 48228  87.8965 289.8886 0002057  95.5470 264.5895 13.14502773248312
ONEWEB-0186             
1 48229U 21031V   26167.27984712 -.00000089  00000+0 -27442-3 0  9994
2 48229  87.8975 289.8768 0002010 102.5661 257.5694 13.14502787248261
ONEWEB-0181             
1 48230U 21031W   26167.10541648  .00000241  00000+0  61564-3 0  9996
2 48230  87.8955 289.9414 0001972 106.4080 253.7267 13.14503156248090
ONEWEB-0188             
1 48231U 21031X   26167.29570110 -.00000139  00000+0 -40934-3 0  9999
2 48231  87.8956 289.9025 0001974 101.1046 259.0306 13.14504445248024
ONEWEB-0220             
1 48232U 21031Y   26167.10698988  .00000178  00000+0  44664-3 0  9999
2 48232  87.8972 289.9132 0002226 104.1569 255.9808 13.14501857248268
ONEWEB-0165             
1 48233U 21031Z   26167.28777375 -.00000167  00000+0 -48489-3 0  9996
2 48233  87.8963 289.8899 0001970 112.5203 247.6135 13.14501449248247
ONEWEB-0199             
1 48234U 21031AA  26167.27191983  .00000037  00000+0  66230-4 0  9990
2 48234  87.8972 289.8789 0001820  95.5666 264.5671 13.14503047248141
ONEWEB-0203             
1 48235U 21031AB  26167.03405758  .00000068  00000+0  14861-3 0  9999
2 48235  87.8970 289.9298 0001753 102.5148 257.6178 13.14502268248122
ONEWEB-0197             
1 48236U 21031AC  26167.31301000  .00000087  00000+0  20136-3 0  9999
2 48236  87.8959 289.8606 0002189  97.2877 262.8502 13.14504504248073
ONEWEB-0194             
1 48237U 21031AD  26167.29253532 -.00000147  00000+0 -42996-3 0  9990
2 48237  87.8965 289.8865 0001717  98.1731 261.9594 13.14502979248247
ONEWEB-0193             
1 48238U 21031AE  26167.30839092  .00000064  00000+0  13699-3 0  9998
2 48238  87.8963 289.8739 0001537  93.8923 266.2383 13.14503305248193
ONEWEB-0191             
1 48239U 21031AF  26167.31949863  .00000185  00000+0  46582-3 0  9999
2 48239  87.8972 289.8702 0002057  96.1769 263.9595 13.14503390248054
ONEWEB-0195             
1 48240U 21031AG  26167.29649210 -.00000152  00000+0 -44445-3 0  9993
2 48240  87.8969 289.8753 0002056 112.3072 247.8276 13.14502175248030
ONEWEB-0201             
1 48241U 21031AH  26167.28472969 -.00000124  00000+0 -36811-3 0  9995
2 48241  87.8963 289.8937 0002239  98.2787 261.8597 13.14504360248262
