[{"OBJECT_NAME":"ONEWEB-0205","OBJECT_ID":"2021-031S","EPOCH":"2026-06-16T07:12:38.580192","MEAN_MOTION":13.14502985,"ECCENTRICITY":0.0002137,"INCLINATION":87.897,"RA_OF_ASC_NODE":289.8732,"ARG_OF_PERICENTER":106.46,"MEAN_ANOMALY":253.6765,"EPHEMERIS_TYPE":0,"CLASSIFICATION_TYPE":"U","NORAD_CAT_ID":48226,"ELEMENT_SET_NO":999,"REV_AT_EPOCH":24815,"BSTAR":-0.0010967000000000001,"MEAN_MOTION_DOT":-3.94e-06,"MEAN_MOTION_DDOT":0.0},{"OBJECT_NAME":"ONEWEB-0206","OBJECT_ID":"2021-031T","EPOCH":"2026-06-16T06:33:50.663520","MEAN_MOTION":13.14504009,"ECCENTRICITY":0.0001798,"INCLINATION":87.8969,"RA_OF_ASC_NODE":289.88,"ARG_OF_PERICENTER":96.5779,"MEAN_ANOMALY":263.5556,"EPHEMERIS_TYPE":0,"CLASSIFICATION_TYPE":"U","NORAD_CAT_ID":48227,"ELEMENT_SET_NO":999,"REV_AT_EPOCH":24810,"BSTAR":5.322e-05,"MEAN_MOTION_DOT":3.3e-07,"MEAN_MOTION_DDOT":0.0},{"OBJECT_NAME":"ONEWEB-0182","OBJECT_ID":"2021-031U","EPOCH":"2026-06-16T06:27:00.025056","MEAN_MOTION":13.14502773,"ECCENTRICITY":0.0002057,"INCLINATION":87.8965,"RA_OF_ASC_NODE":289.8886,"ARG_OF_PERICENTER":95.547,"MEAN_ANOMALY":264.5895,"EPHEMERIS_TYPE":0,"CLASSIFICATION_TYPE":"U","NORAD_CAT_ID":48228,"ELEMENT_SET_NO":999,"REV_AT_EPOCH":24831,"BSTAR":0.0002142,"MEAN_MOTION_DOT":9.2e-07,"MEAN_MOTION_DDOT":0.0},{"OBJECT_NAME":"ONEWEB-0186","OBJECT_ID":"2021-031V","EPOCH":"2026-06-16T06:42:58.791168","MEAN_MOTION":13.14502787,"ECCENTRICITY":0.000201,"INCLINATION":87.8975,"RA_OF_ASC_NODE":289.8768,"ARG_OF_PERICENTER":102.5661,"MEAN_ANOMALY":257.5694,"EPHEMERIS_TYPE":0,"CLASSIFICATION_TYPE":"U","NORAD_CAT_ID":48229,"ELEMENT_SET_NO":999,"REV_AT_EPOCH":24826,"BSTAR":-0.00027442,"MEAN_MOTION_DOT":-8.9e-07,"MEAN_MOTION_DDOT":0.0},{"OBJECT_NAME":"ONEWEB-0181","OBJECT_ID":"2021-031W","EPOCH":"2026-06-16T02:31:47.983872","MEAN_MOTION":13.14503156,"ECCENTRICITY":0.0001972,"INCLINATION":87.8955,"RA_OF_ASC_NODE":289.9414,"ARG_OF_PERICENTER":106.408,"MEAN_ANOMALY":253.7267,"EPHEMERIS_TYPE":0,"CLASSIFICATION_TYPE":"U","NORAD_CAT_ID":48230,"ELEMENT_SET_NO":999,"REV_AT_EPOCH":24809,"BSTAR":0.00061564,"MEAN_MOTION_DOT":2.41e-06,"MEAN_MOTION_DDOT":0.0},{"OBJECT_NAME":"ONEWEB-0188","OBJECT_ID":"2021-031X","EPOCH":"2026-06-16T07:05:48.575040","MEAN_MOTION":13.14504445,"ECCENTRICITY":0.0001974,"INCLINATION":87.8956,"RA_OF_ASC_NODE":289.9025,"ARG_OF_PERICENTER":101.1046,"MEAN_ANOMALY":259.0306,"EPHEMERIS_TYPE":0,"CLASSIFICATION_TYPE":"U","NORAD_CAT_ID":48231,"ELEMENT_SET_NO":999,"REV_AT_EPOCH":24802,"BSTAR":-0.00040934,"MEAN_MOTION_DOT":-1.39e-06,"MEAN_MOTION_DDOT":0.0},{"OBJECT_NAME":"ONEWEB-0220","OBJECT_ID":"2021-031Y","EPOCH":"2026-06-16T02:34:03.925632","MEAN_MOTION":13.14501857,"ECCENTRICITY":0.0002226,"INCLINATION":87.8972,"RA_OF_ASC_NODE":289.9132,"ARG_OF_PERICENTER":104.1569,"MEAN_ANOMALY":255.9808,"EPHEMERIS_TYPE":0,"CLASSIFICATION_TYPE":"U","NORAD_CAT_ID":48232,"ELEMENT_SET_NO":999,"REV_AT_EPOCH":24826,"BSTAR":0.00044664,"MEAN_MOTION_DOT":1.78e-06,"MEAN_MOTION_DDOT":0.0},{"OBJECT_NAME":"ONEWEB-0165","OBJECT_ID":"2021-031Z","EPOCH":"2026-06-16T06:54:23.652000","MEAN_MOTION":13.14501449,"ECCENTRICITY":0.000197,"INCLINATION":87.8963,"RA_OF_ASC_NODE":289.8899,"ARG_OF_PERICENTER":112.5203,"MEAN_ANOMALY":247.6135,"EPHEMERIS_TYPE":0,"CLASSIFICATION_TYPE":"U","NORAD_CAT_ID":48233,"ELEMENT_SET_NO":999,"REV_AT_EPOCH":24824,"BSTAR":-0.00048489,"MEAN_MOTION_DOT":-1.67e-06,"MEAN_MOTION_DDOT":0.0},{"OBJECT_NAME":"ONEWEB-0199","OBJECT_ID":"2021-031AA","EPOCH":"2026-06-16T06:31:33.873312","MEAN_MOTION":13.14503047,"ECCENTRICITY":0.000182,"INCLINATION":87.8972,"RA_OF_ASC_NODE":289.8789,"ARG_OF_PERICENTER":95.5666,"MEAN_ANOMALY":264.5671,"EPHEMERIS_TYPE":0,"CLASSIFICATION_TYPE":"U","NORAD_CAT_ID":48234,"ELEMENT_SET_NO":999,"REV_AT_EPOCH":24814,"BSTAR":6.623000000000001e-05,"MEAN_MOTION_DOT":3.7e-07,"MEAN_MOTION_DDOT":0.0},{"OBJECT_NAME":"ONEWEB-0203","OBJECT_ID":"2021-031AB","EPOCH":"2026-06-16T00:49:02.574912","MEAN_MOTION":13.14502268,"ECCENTRICITY":0.0001753,"INCLINATION":87.897,"RA_OF_ASC_NODE":289.9298,"ARG_OF_PERICENTER":102.5148,"MEAN_ANOMALY":257.6178,"EPHEMERIS_TYPE":0,"CLASSIFICATION_TYPE":"U","NORAD_CAT_ID":48235,"ELEMENT_SET_NO":999,"REV_AT_EPOCH":24812,"BSTAR":0.00014861,"MEAN_MOTION_DOT":6.8e-07,"MEAN_MOTION_DDOT":0.0},{"OBJECT_NAME":"ONEWEB-0197","OBJECT_ID":"2021-031AC","EPOCH":"2026-06-16T07:30:44.064000","MEAN_MOTION":13.14504504,"ECCENTRICITY":0.0002189,"INCLINATION":87.8959,"RA_OF_ASC_NODE":289.8606,"ARG_OF_PERICENTER":97.2877,"MEAN_ANOMALY":262.8502,"EPHEMERIS_TYPE":0,"CLASSIFICATION_TYPE":"U","NORAD_CAT_ID":48236,"ELEMENT_SET_NO":999,"REV_AT_EPOCH":24807,"BSTAR":0.00020136,"MEAN_MOTION_DOT":8.7e-07,"MEAN_MOTION_DDOT":0.0},{"OBJECT_NAME":"ONEWEB-0194","OBJECT_ID":"2021-031AD","EPOCH":"2026-06-16T07:01:15.051648","MEAN_MOTION":13.14502979,"ECCENTRICITY":0.0001717,"INCLINATION":87.8965,"RA_OF_ASC_NODE":289.8865,"ARG_OF_PERICENTER":98.1731,"MEAN_ANOMALY":261.9594,"EPHEMERIS_TYPE":0,"CLASSIFICATION_TYPE":"U","NORAD_CAT_ID":48237,"ELEMENT_SET_NO":999,"REV_AT_EPOCH":24824,"BSTAR":-0.00042996,"MEAN_MOTION_DOT":-1.47e-06,"MEAN_MOTION_DDOT":0.0},{"OBJECT_NAME":"ONEWEB-0193","OBJECT_ID":"2021-031AE","EPOCH":"2026-06-16T07:24:04.975488","MEAN_MOTION":13.14503305,"ECCENTRICITY":0.0001537,"INCLINATION":87.8963,"RA_OF_ASC_NODE":289.8739,"ARG_OF_PERICENTER":93.8923,"MEAN_ANOMALY":266.2383,"EPHEMERIS_TYPE":0,"CLASSIFICATION_TYPE":"U","NORAD_CAT_ID":48238,"ELEMENT_SET_NO":999,"REV_AT_EPOCH":24819,"BSTAR":0.00013699,"MEAN_MOTION_DOT":6.4e-07,"MEAN_MOTION_DDOT":0.0},{"OBJECT_NAME":"ONEWEB-0191","OBJECT_ID":"2021-031AF","EPOCH":"2026-06-16T07:40:04.681632","MEAN_MOTION":13.1450339,"ECCENTRICITY":0.0002057,"INCLINATION":87.8972,"RA_OF_ASC_NODE":289.8702,"ARG_OF_PERICENTER":96.1769,"MEAN_ANOMALY":263.9595,"EPHEMERIS_TYPE":0,"CLASSIFICATION_TYPE":"U","NORAD_CAT_ID":48239,"ELEMENT_SET_NO":999,"REV_AT_EPOCH":24805,"BSTAR":0.00046582000000000004,"MEAN_MOTION_DOT":1.85e-06,"MEAN_MOTION_DDOT":0.0},{"OBJECT_NAME":"ONEWEB-0195","OBJECT_ID":"2021-031AG","EPOCH":"2026-06-16T07:06:56.917440","MEAN_MOTION":13.14502175,"ECCENTRICITY":0.0002056,"INCLINATION":87.8969,"RA_OF_ASC_NODE":289.8753,"ARG_OF_PERICENTER":112.3072,"MEAN_ANOMALY":247.8276,"EPHEMERIS_TYPE":0,"CLASSIFICATION_TYPE":"U","NORAD_CAT_ID":48240,"ELEMENT_SET_NO":999,"REV_AT_EPOCH":24803,"BSTAR":-0.00044445000000000004,"MEAN_MOTION_DOT":-1.52e-06,"MEAN_MOTION_DDOT":0.0},{"OBJECT_NAME":"ONEWEB-0201","OBJECT_ID":"2021-031AH","EPOCH":"2026-06-16T06:50:00.645216","MEAN_MOTION":13.1450436,"ECCENTRICITY":0.0002239,"INCLINATION":87.8963,"RA_OF_ASC_NODE":289.8937,"ARG_OF_PERICENTER":98.2787,"MEAN_ANOMALY":261.8597,"EPHEMERIS_TYPE":0,"CLASSIFICATION_TYPE":"U","NORAD_CAT_ID":48241,"ELEMENT_SET_NO":999,"REV_AT_EPOCH":24826,"BSTAR":-0.00036811,"MEAN_MOTION_DOT":-1.24e-06,"MEAN_MOTION_DDOT":0.0}]